OBJECT_NAME,OBJECT_ID,EPOCH,MEAN_MOTION,ECCENTRICITY,INCLINATION,RA_OF_ASC_NODE,ARG_OF_PERICENTER,MEAN_ANOMALY,EPHEMERIS_TYPE,CLASSIFICATION_TYPE,NORAD_CAT_ID,ELEMENT_SET_NO,REV_AT_EPOCH,BSTAR,MEAN_MOTION_DOT,MEAN_MOTION_DDOT
TYVAK-0173,2021-059P,2026-07-17T02:38:29.827680,14.81974577,.0007173,96.0072,267.0284,291.7524,68.2931,0,U,48892,999,27267,.1005E-3,.765E-5,0
MANDRAKE 2 ABLE,2021-059AE,2026-07-17T19:02:21.547680,15.56141624,.00039587,97.7027,30.9392,221.8478,138.2474,0,U,48907,999,28188,.1748718E-3,.12119E-3,0
MANDRAKE 2 BAKER,2021-059AF,2026-07-17T01:19:07.679136,15.61037799,.0002859,97.6987,33.2299,210.3839,149.7252,0,U,48908,999,28195,.20162E-3,.16836E-3,0
PACE-1,2021-059AG,2026-07-17T12:02:38.888736,15.85708865,.0003589,97.6722,40.1977,178.0072,182.1213,0,U,48909,999,28259,.31525E-3,.76469E-3,0
YAM-3,2021-059AN,2026-07-17T22:45:22.040064,15.49186124,.00040978,97.6996,27.9290,228.0781,132.0120,0,U,48915,999,28175,.12309528E-3,.6602E-4,0
FARADAY_PHOENIX,2021-059AX,2026-07-17T11:53:10.851072,15.87740459,.0006022,97.6773,40.1104,194.6843,165.4254,0,U,48924,999,28245,.51722E-3,.139684E-2,0
DEMO8 (TENZING),2021-059CA,2026-07-17T06:46:24.838752,15.56081331,.000584,97.7010,34.0172,222.1613,137.9192,0,U,48951,999,28198,.18173E-3,.12576E-3,0
FENGYUN 3E,2021-062A,2026-07-17T22:12:21.645792,14.19906374,.0002107,98.7498,201.9916,34.2538,325.8774,0,U,49008,999,26094,.14480336E-4,-.13E-6,0
ISS (NAUKA),2021-066A,2026-07-17T19:56:26.020608,15.49035972,.00067917,51.6316,148.4431,307.8623,52.1750,0,U,49044,999,57534,.77849885E-4,.3846E-4,0
STARLINK-3100,2021-082Q,2026-07-17T17:59:48.355008,14.98328009,.00031658,70.0005,326.5180,270.9170,89.1627,0,U,49144,999,26546,.58218316E-4,.602E-5,0
2021-091B,2021-091B,2026-07-17T23:06:30.595104,15.18689932,.0011804,97.4473,26.0713,297.7374,62.2662,0,U,49316,999,26365,.74866206E-4,.1486E-4,0
SDGSAT 1,2021-100A,2026-07-17T22:11:12.288192,15.19246408,.00100585,97.2611,244.6982,154.1880,205.9859,0,U,49387,999,26058,.85311562E-4,.1734E-4,0
TEIKYOSAT-4 (OORURI),2021-102B,2026-07-17T16:17:24.090720,15.09603774,.00119734,97.3662,226.9769,180.0039,180.1192,0,U,49396,999,25732,.60542187E-4,.913E-5,0
Z-SAT,2021-102E,2026-07-17T21:48:01.988640,15.18474427,.00178085,97.3306,233.3002,135.7963,224.4698,0,U,49399,999,25810,.12508571E-3,.2521E-4,0
HIBARI,2021-102F,2026-07-17T02:47:28.197312,15.32303092,.00132863,97.3217,243.6868,95.7219,264.5538,0,U,49400,999,25877,.20157733E-3,.6225E-4,0
KOSEN-1,2021-102H,2026-07-17T16:16:00.535008,15.27234297,.0015454,97.3168,240.2479,99.8650,260.4335,0,U,49402,999,25867,.1496185E-3,.3933E-4,0
GLOBAL-14,2021-106A,2026-07-17T22:11:25.629216,15.51917152,.00181898,42.0037,108.2130,241.9808,117.9196,0,U,49469,999,26290,.25342991E-3,.15419E-3,0
GAOFEN-3 02,2021-109A,2026-07-17T23:47:40.510176,14.42210608,.00013685,98.4090,206.6512,248.1129,111.9915,0,U,49495,999,24475,-.16788813E-4,-.99E-6,0
GLOBAL-12,2021-115BA,2026-07-17T19:18:17.004672,15.55427236,.00029506,53.1935,257.1125,74.0317,286.1020,0,U,49772,999,26066,.23259971E-3,.15673E-3,0
GLOBAL-13,2021-115BB,2026-07-17T11:47:16.393344,15.47163605,.0000385,53.1963,270.4046,151.9456,208.1573,0,U,49773,999,26045,.21243E-3,.1054E-3,0
GLOBAL-17,2021-120A,2026-07-17T09:03:52.363296,15.53785378,.0013426,41.9929,229.1785,107.8775,252.3535,0,U,49949,999,25959,.22366E-3,.14488E-3,0
GLOBAL-16,2021-120B,2026-07-17T11:56:37.683168,15.51545915,.0011433,41.9932,232.7813,98.4215,261.7926,0,U,49950,999,25955,.21759E-3,.12956E-3,0
XW-3 (CAS-9),2021-131B,2026-07-17T22:42:01.064160,14.41382322,.00044226,98.4990,291.1696,23.6117,336.5275,0,U,50466,999,23954,.33784555E-4,.65E-6,0
ION SCV-004,2022-002K,2026-07-17T16:48:03.138048,15.30722354,.00058231,97.2812,255.7879,235.8295,124.2394,0,U,50993,999,24996,.91619734E-4,.2646E-4,0
ETV-A1,2022-002CE,2026-07-17T23:42:46.694880,15.41269864,.00041942,97.2857,265.2149,213.1245,146.9740,0,U,51060,999,25058,.15686041E-3,.6442E-4,0
BRO-5,2022-002CF,2026-07-17T22:50:19.268160,15.48983229,.00056719,97.2978,272.9273,193.0658,167.0447,0,U,51061,999,25101,.34732197E-3,.18719E-3,0
LUDI TANCE 1-01A (L-SAR 01A),2022-007A,2026-07-17T23:18:19.673856,14.88409891,.00016021,97.8107,205.9543,90.3997,269.7403,0,U,51284,999,24305,.1245865E-5,-.43E-6,0
LUDI TANCE 1-01B (L-SAR 01B),2022-018A,2026-07-18T00:06:44.320032,14.88415827,.00016509,97.8112,205.9858,91.2163,268.9243,0,U,51822,999,23829,.32456137E-4,.247E-5,0
