TYVAK-0173              
1 48892U 21059P   26198.11006745  .00000765  00000+0  10050-3 0  9994
2 48892  96.0072 267.0284 0007173 291.7524  68.2931 14.81974577272670
MANDRAKE 2 ABLE         
1 48907U 21059AE  26198.79330495  .00012119  00000+0  17487-3 0  9994
2 48907  97.7027  30.9392 0003958 221.8478 138.2474 15.56141624281886
MANDRAKE 2 BAKER        
1 48908U 21059AF  26198.05494999  .00016836  00000+0  20162-3 0  9998
2 48908  97.6987  33.2299 0002859 210.3839 149.7252 15.61037799281958
PACE-1                  
1 48909U 21059AG  26198.50183899  .00076469  00000+0  31525-3 0  9996
2 48909  97.6722  40.1977 0003589 178.0072 182.1213 15.85708865282590
YAM-3                   
1 48915U 21059AN  26198.94817176  .00006602  00000+0  12310-3 0  9996
2 48915  97.6996  27.9290 0004097 228.0781 132.0120 15.49186124281755
FARADAY_PHOENIX         
1 48924U 21059AX  26198.49526448  .00139684  00000+0  51722-3 0  9992
2 48924  97.6773  40.1104 0006022 194.6843 165.4254 15.87740459282451
DEMO8 (TENZING)         
1 48951U 21059CA  26198.28223193  .00012576  00000+0  18173-3 0  9993
2 48951  97.7010  34.0172 0005840 222.1613 137.9192 15.56081331281987
FENGYUN 3E              
1 49008U 21062A   26198.92525053 -.00000013  00000+0  14480-4 0  9994
2 49008  98.7498 201.9916 0002107  34.2538 325.8774 14.19906374260942
ISS (NAUKA)             
1 49044U 21066A   26198.83085672  .00003846  00000+0  77850-4 0  9992
2 49044  51.6316 148.4431 0006791 307.8623  52.1750 15.49035972575341
STARLINK-3100           
1 49144U 21082Q   26198.74986522  .00000602  00000+0  58218-4 0  9999
2 49144  70.0005 326.5180 0003165 270.9170  89.1627 14.98328009265462
2021-091B               
1 49316U 21091B   26198.96285411  .00001486  00000+0  74866-4 0  9991
2 49316  97.4473  26.0713 0011804 297.7374  62.2662 15.18689932263659
SDGSAT 1                
1 49387U 21100A   26198.92444778  .00001734  00000+0  85312-4 0  9993
2 49387  97.2611 244.6982 0010058 154.1880 205.9859 15.19246408260584
TEIKYOSAT-4 (OORURI)    
1 49396U 21102B   26198.67875105  .00000913  00000+0  60542-4 0  9995
2 49396  97.3662 226.9769 0011973 180.0039 180.1192 15.09603774257322
Z-SAT                   
1 49399U 21102E   26198.90835635  .00002521  00000+0  12509-3 0  9994
2 49399  97.3306 233.3002 0017808 135.7963 224.4698 15.18474427258109
HIBARI                  
1 49400U 21102F   26198.11629858  .00006225  00000+0  20158-3 0  9992
2 49400  97.3217 243.6868 0013286  95.7219 264.5538 15.32303092258778
KOSEN-1                 
1 49402U 21102H   26198.67778397  .00003933  00000+0  14962-3 0  9997
2 49402  97.3168 240.2479 0015454  99.8650 260.4335 15.27234297258672
GLOBAL-14               
1 49469U 21106A   26198.92460219  .00015419  00000+0  25343-3 0  9990
2 49469  42.0037 108.2130 0018189 241.9808 117.9196 15.51917152262904
GAOFEN-3 02             
1 49495U 21109A   26198.99144109 -.00000099  00000+0 -16789-4 0  9991
2 49495  98.4090 206.6512 0001368 248.1129 111.9915 14.42210608244757
GLOBAL-12               
1 49772U 21115BA  26198.80436348  .00015673  00000+0  23260-3 0  9998
2 49772  53.1935 257.1125 0002950  74.0317 286.1020 15.55427236260667
GLOBAL-13               
1 49773U 21115BB  26198.49116196  .00010540  00000+0  21243-3 0  9997
2 49773  53.1963 270.4046 0000385 151.9456 208.1573 15.47163605260450
GLOBAL-17               
1 49949U 21120A   26198.37768939  .00014488  00000+0  22366-3 0  9995
2 49949  41.9929 229.1785 0013426 107.8775 252.3535 15.53785378259593
GLOBAL-16               
1 49950U 21120B   26198.49765837  .00012956  00000+0  21759-3 0  9997
2 49950  41.9932 232.7813 0011433  98.4215 261.7926 15.51545915259554
XW-3 (CAS-9)            
1 50466U 21131B   26198.94584565  .00000065  00000+0  33785-4 0  9991
2 50466  98.4990 291.1696 0004422  23.6117 336.5275 14.41382322239542
ION SCV-004             
1 50993U 22002K   26198.70003632  .00002646  00000+0  91620-4 0  9998
2 50993  97.2812 255.7879 0005823 235.8295 124.2394 15.30722354249969
ETV-A1                  
1 51060U 22002CE  26198.98804045  .00006442  00000+0  15686-3 0  9996
2 51060  97.2857 265.2149 0004194 213.1245 146.9740 15.41269864250584
BRO-5                   
1 51061U 22002CF  26198.95161190  .00018719  00000+0  34732-3 0  9994
2 51061  97.2978 272.9273 0005671 193.0658 167.0447 15.48983229251019
LUDI TANCE 1-01A (L-SA*)
1 51284U 22007A   26198.97106104 -.00000043  00000+0  12459-5 0  9998
2 51284  97.8107 205.9543 0001602  90.3997 269.7403 14.88409891243055
LUDI TANCE 1-01B (L-SA*)
1 51822U 22018A   26199.00467963  .00000247  00000+0  32456-4 0  9999
2 51822  97.8112 205.9858 0001650  91.2163 268.9243 14.88415827238295
